TURKSAT 5B              
1 50212U 21126A   25344.04280973  .00000149  00000+0  00000+0 0  9995
2 50212   0.0699 338.0707 0004599 318.7877 199.5855  1.00271434 14405
INMARSAT 6-F1           
1 50319U 21128A   25344.57268745 -.00000167  00000+0  00000+0 0  9997
2 50319   0.0169 325.2938 0000059 340.7097  63.4701  1.00269388 14364
SHIYAN-12 01 (SY-12 01) 
1 50321U 21129A   25344.76386168 -.00000144  00000+0  00000+0 0  9997
2 50321   3.1892  82.5401 0003926 199.4704 224.9736  1.00426508 14611
SHIYAN-12 02 (SY-12 02) 
1 50322U 21129B   25344.76129189 -.00000114  00000+0  00000+0 0  9993
2 50322   3.1891  82.5438 0004061 188.8759 165.3563  1.00068305 14606
TJS-9                   
1 50574U 21135A   25344.40197348 -.00000294  00000+0  00000+0 0  9991
2 50574   0.0067   4.9966 0001633 216.9800 139.3408  1.00273992 14533
GOES 18                 
1 51850U 22021A   25344.55723605  .00000101  00000+0  00000+0 0  9997
2 51850   0.0068 261.5315 0000705  43.3860 198.2167  1.00271591  4705
ZHONGXING-6D            
1 52255U 22038A   25342.73431293 -.00000351  00000+0  00000+0 0  9990
2 52255   0.0181 280.3435 0003113 352.1529 194.6897  1.00269942 13518
NILESAT 301             
1 52817U 22061A   25344.27058868 -.00000054  00000+0  00000+0 0  9994
2 52817   0.0445 344.0965 0003943 292.6951 252.8794  1.00273859 12849
CMS-02 (GSAT 24)        
1 52903U 22067A   25344.60936310 -.00000160  00000+0  00000+0 0  9998
2 52903   0.0252  85.6088 0004867 183.7934 112.5513  1.00271000 12715
MEASAT 3D               
1 52904U 22067B   25344.57798727 -.00000237  00000+0  00000+0 0  9998
2 52904   0.0425 310.5577 0003098 337.4364  91.1302  1.00268034 12756
SES-22                  
1 52933U 22071A   25344.49089726  .00000109  00000+0  00000+0 0  9995
2 52933   0.0108 344.8567 0000937 276.9495 215.3937  1.00265019  5639
WFOV (USA 332)          
1 52940U 22073A   25343.70322580 -.00000360  00000+0  00000+0 0  9996
2 52940   3.2249  80.9852 0002491 139.6179 230.5294  1.00270831 12477
TIANLIAN 2-03           
1 53100U 22078A   25344.26503120  .00000075  00000+0  00000+0 0  9995
2 53100   0.2008  59.2652 0003398 213.7221 272.2461  1.00272740 12652
SBIRS GEO-6 (USA 336)   
1 53355U 22092A   25344.58393050 -.00000290  00000+0  00000+0 0  9997
2 53355   3.5881 314.7705 0002315 305.8396 168.1691  1.00270885 12343
EUTELSAT KONNECT VHTS   
1 53765U 22110A   25344.27058868  .00000021  00000+0  00000+0 0  9995
2 53765   0.0653 101.0949 0002566 136.9321 301.3392  1.00271134  4936
ZHONGXING-1E            
1 53813U 22112A   25344.68167784 -.00000145  00000+0  00000+0 0  9992
2 53813   0.0380 204.5627 0004943  53.8588 148.0366  1.00272803 11953
SES-20                  
1 53960U 22123A   25344.34188814 -.00000097  00000+0  00000+0 0  9993
2 53960   0.0341  81.4259 0000749   1.7594  16.1065  1.00269665 11644
SES-21                  
1 53961U 22123B   25344.45878146  .00000073  00000+0  00000+0 0  9993
2 53961   0.0273  37.5080 0000907 220.0630 216.0437  1.00269623  5322
GALAXY 33 (G-33)        
1 54026U 22128A   25344.46433617  .00000083  00000+0  00000+0 0  9993
2 54026   0.0108 311.8948 0002179 297.9463 223.7665  1.00272730 11859
GALAXY 34 (G-34)        
1 54027U 22128B   25344.40808551  .00000000  00000+0  00000+0 0  9990
2 54027   0.0236 330.0219 0001321 280.9634 206.3809  1.00270677 12021
ANGOSAT 2               
1 54033U 22131A   25344.25947630  .00000139  00000+0  00000+0 0  9999
2 54033   0.0267  79.1508 0001304 214.2519 262.2524  1.00272198 11582
EUTELSAT HOTBIRD 13F    
1 54048U 22134A   25344.25947630  .00000090  00000+0  00000+0 0  9994
2 54048   0.0508 290.7601 0001975  64.7163 190.1902  1.00270450 11485
LDPE-2                  
1 54219U 22144A   25344.58253473 -.00000229  00000+0  00000+0 0  9991
2 54219   5.1883  64.9894 0002186 249.9752  71.0117  1.02055731  9935
EUTELSAT HOTBIRD 13G    
1 54225U 22146A   25344.25947630  .00000090  00000+0  00000+0 0  9994
2 54225   0.0515 237.9533 0001886 304.8699   2.8172  1.00268356  5573
ZHONGXING-19            
1 54230U 22148A   25344.67076800 -.00000075  00000+0  00000+0 0  9994
2 54230   0.0372  88.9355 0008939 156.5879 239.0048  1.00271804 11490
GALAXY 31 (G-31)        
1 54243U 22153A   25344.52910444  .00000017  00000+0  00000+0 0  9994
2 54243   0.0160 257.0938 0001859  14.4702 237.4238  1.00272330  5240
GALAXY 32 (G-32)        
1 54244U 22153B   25344.11825400 -.00000171  00000+0  00000+0 0  9999
2 54244   0.0093 341.2572 0002715 328.5466  80.8610  1.00270509 11241
EUTELSAT 10B            
1 54259U 22157A   25344.26503120  .00000071  00000+0  00000+0 0  9995
2 54259   0.0611  99.1185 0000784  70.4001  15.1099  1.00269412 11135
GALAXY 35 (G-35)        
1 54741U 22170A   25344.18308589 -.00000159  00000+0  00000+0 0  9997
2 54741   0.0310  99.3994 0002612 166.4389 146.1460  1.00271022 10994
GALAXY 36 (G-36)        
1 54742U 22170B   25344.23030918 -.00000182  00000+0  00000+0 0  9998
2 54742   0.0118  35.1013 0000540 255.8985 142.1142  1.00270681 10874
METEOSAT-12 (MTG-I1)    
1 54743U 22170C   25344.27058868 -.00000004  00000+0  00000+0 0  9990
2 54743   0.6844  23.1554 0001835 238.1267 275.1497  1.00267149 11088
SHIJIAN-23 (SJ-23)      
1 55131U 23002A   25344.77414992  .00000019  00000+0  00000+0 0  9991
2 55131   3.2346  80.7308 0002066 276.0536  60.5926  1.00492269 10613
APSTAR-6E               
1 55239U 23005A   25344.68271500 -.00000313  00000+0  00000+0 0  9997
2 55239   0.0111  80.2368 0004027 177.4316 201.7783  1.00270179 16808
USA 342                 
1 55263U 23008A   25343.57030699  .00000000  00000+0  00000+0 0  9998
2 55263   0.0161 337.6680 0000251 111.4944 218.6612  1.00271265 10614
LDPE-3A                 
1 55264U 23008B   25344.63060582 -.00000226  00000+0  00000+0 0  9992
2 55264   1.7956  83.5653 0001221 201.4144 104.9254  1.00575453  9929
ELEKTRO-L 4             
1 55506U 23016A   25344.31894166 -.00000054  00000+0  00000+0 0  9997
2 55506   0.0742 120.6262 0002858 132.2338 107.1118  1.00270187 10433
AMAZONAS NEXUS          
1 55508U 23017A   25344.12683361 -.00000279  00000+0  00000+0 0  9991
2 55508   0.0418  39.2906 0002134 247.5582 136.9173  1.00269242  5146
ZHONGXING-26            
1 55686U 23023A   25343.23353448 -.00000352  00000+0  00000+0 0  9998
2 55686   0.0641  72.1814 0000873 249.9033 325.3083  1.00267342 10329
LUCH-5X (OLYMP-K 2)     
1 55841U 23031A   25344.75445573  .00000038  00000+0  00000+0 0  9999
2 55841   0.0418  86.9407 0000718  23.6258 302.7402  1.00268744 10049
GAOFEN-13 02            
1 55912U 23036A   25344.45684712 -.00000216  00000+0  00000+0 0  9999
2 55912   1.0892 337.9102 0004454 327.6077  86.6042  1.00269787 10207
SES-18                  
1 55970U 23038A   25344.34188824 -.00000098  00000+0  00000+0 0  9994
2 55970   0.0245 286.5279 0003229 340.7183 192.0581  1.00272009 10211
SES-19                  
1 55971U 23038B   25344.56121795  .00000092  00000+0  00000+0 0  9996
2 55971   0.0173  26.3514 0001958 239.6146 240.7164  1.00273594 10191
INTELSAT 40E (IS-40E)   
1 56174U 23052A   25343.51718007  .00000000  00000+0  00000+0 0  9999
2 56174   0.0128 351.6797 0001894 240.5730 301.4259  1.00268970  9924
VIASAT-3 F1             
1 56370U 23060A   25344.31086600  .00000000  00000+0  00000+0 0  9992
2 56370   0.0270 319.7878 0000338 146.9716 355.4843  1.00268034  9547
ARCTURUS                
1 56371U 23060B   25344.13186075 -.00000166  00000+0  00000+0 0  9994
2 56371   2.2877  82.3491 0001195 253.5870 128.5364  1.00270631  9562
GS-1                    
1 56372U 23060C   25342.72408620 -.00000077  00000+0  00000+0 0  9992
2 56372   2.2346  82.0997 0003944 245.7301  83.8807  1.00305378  5623
BEIDOU-3 G4             
1 56564U 23066A   25344.63175770 -.00000107  00000+0  00000+0 0  9994
2 56564   0.8192 301.8923 0002958 234.3335 290.8777  1.00271386  9503
ARABSAT-7B (BADR-8)     
1 56757U 23075A   25344.25933741  .00000148  00000+0  00000+0 0  9990
2 56757   0.0768  27.5668 0003408 298.1622 232.8713  1.00267304  9224
NVS-01 (IRNSS-1J)       
1 56759U 23076A   25344.61156106 -.00000332  00000+0  00000+0 0  9991
2 56759   2.6230 251.6753 0008599   8.8085 168.6656  1.00264380  9221
NUSANTARA TIGA (SATRIA) 
1 57045U 23086A   25343.88586477 -.00000232  00000+0  00000+0 0  9996
2 57045   0.0350 334.5113 0005095 316.3975 252.8699  1.00270301  7860
H2SAT (HEINRICH HERTZ)  
1 57213U 23093A   25344.27058868  .00000005  00000+0  00000+0 0  9990
2 57213   0.0397 143.3447 0000584 213.2637 180.7403  1.00269667  9027
SYRACUSE 4B             
1 57214U 23093B   25344.62995683 -.00000050  00000+0  00000+0 0  9996
2 57214   0.0008 357.9510 0000261 313.9117 347.9821  1.00272846  5079
JUPITER 3 (ECHOSTAR 24) 
1 57479U 23108A   25344.04496062  .00000000  00000+0  00000+0 0  9993
2 57479   0.0203 346.6682 0001137 267.4899 105.8294  1.00270509  8754
GALAXY 37 (G-37)        
1 57493U 23112A   25344.45878146  .00000052  00000+0  00000+0 0  9993
2 57493   0.0097   0.5935 0002288 264.7649 212.2417  1.00272064  8656
LUDI TANCE-4 01A        
1 57624U 23120A   25344.60957810 -.00000173  00000+0  00000+0 0  9996
2 57624  15.2344 198.6279 0006408  79.1958 110.9685  1.00272929  8655
TJS-10                  
1 58204U 23169A   25344.78217263  .00000007  00000+0  00000+0 0  9999
2 58204   2.0591  82.7857 0006022 167.4023 284.1881  1.00273451  7651
ZHONGXING-6E            
1 58253U 23172A   25344.74383749 -.00000357  00000+0  00000+0 0  9995
2 58253   0.0457  94.9268 0003732 211.9974 156.0545  1.00267646  7776
YAOGAN-41               
1 58582U 23197A   25344.54275338 -.00000359  00000+0  00000+0 0  9991
2 58582   3.4841 310.6117 0009987 199.5500 247.9388  1.00272292  7431
OVZON-3                 
1 58698U 24003A   25344.52822792  .00000055  00000+0  00000+0 0  9998
2 58698   0.0183 253.7580 0000182  48.6954  26.8969  1.00272366  5548
